ONEWEB-0120             
1 47266U 20100J   25257.47917399  .00000445  00000+0  12003-2 0  9998
2 47266  87.8904  45.4617 0001678 100.3121 259.8197 13.12443665228569
ONEWEB-0121             
1 47267U 20100K   25257.46768858  .00000190  00000+0  49323-3 0  9995
2 47267  87.8898  45.4306 0001520  92.4564 267.6739 13.12441863228472
ONEWEB-0122             
1 47268U 20100L   25257.46267539  .00000243  00000+0  64106-3 0  9991
2 47268  87.8901  45.4343 0001559  98.7889 261.3416 13.12445947228380
ONEWEB-0123             
1 47269U 20100M   25257.38171309  .00000093  00000+0  22340-3 0  9999
2 47269  87.8901  45.4783 0001792  95.2398 264.8935 13.12444828228511
ONEWEB-0124             
1 47270U 20100N   25257.37035896 -.00000349  00000+0 -10060-2 0  9991
2 47270  87.8903  45.4835 0001660  89.4614 270.6704 13.12443453228391
ONEWEB-0125             
1 47271U 20100P   25257.34764281  .00000031  00000+0  50361-4 0  9992
2 47271  87.8902  45.4503 0001913  90.3759 269.7589 13.12442657228457
ONEWEB-0126             
1 47272U 20100Q   25257.36886457 -.00000365  00000+0 -10502-2 0  9998
2 47272  87.8910  45.4678 0001720  98.6749 261.4574 13.12442792228527
ONEWEB-0127             
1 47273U 20100R   25257.48714617  .00000337  00000+0  90248-3 0  9993
2 47273  87.8903  45.4564 0001649 100.4619 259.6696 13.12443106228560
